OBJECT_NAME,OBJECT_ID,EPOCH,MEAN_MOTION,ECCENTRICITY,INCLINATION,RA_OF_ASC_NODE,ARG_OF_PERICENTER,MEAN_ANOMALY,EPHEMERIS_TYPE,CLASSIFICATION_TYPE,NORAD_CAT_ID,ELEMENT_SET_NO,REV_AT_EPOCH,BSTAR,MEAN_MOTION_DOT,MEAN_MOTION_DDOT
STARLINK-32810,2025-034J,2026-06-09T09:47:24.408096,15.34385891,.0001186,53.1599,191.7966,95.7337,264.3800,0,U,63037,999,7313,.75965E-3,.25365E-3,0
STARLINK-32812,2025-034K,2026-06-09T09:08:51.340128,15.30195550,.0001217,53.1571,192.3347,91.7320,268.3820,0,U,63038,999,7312,.51127E-3,.14811E-3,0
STARLINK-32811,2025-034L,2026-06-09T08:31:47.290080,15.34400259,.0001312,53.1592,192.1780,79.3294,280.7857,0,U,63039,999,7312,.6274E-3,.20881E-3,0
STARLINK-32832,2025-034M,2026-06-09T07:50:34.966176,15.31714613,.0001373,53.1584,191.9958,74.6221,285.4932,0,U,63040,999,7312,.40427E-3,.12206E-3,0
STARLINK-32820,2025-034N,2026-06-09T09:01:15.386592,15.30209309,.0001067,53.1575,192.3010,86.6845,273.4278,0,U,63041,999,7312,.3988E-3,.11474E-3,0
STARLINK-32795,2025-034P,2026-06-09T08:55:53.550048,15.34401947,.0001045,53.1589,191.5715,94.9243,265.1879,0,U,63042,999,7313,.32325E-3,.10561E-3,0
STARLINK-32827,2025-034Q,2026-06-09T11:36:26.972064,15.34372643,.0000893,53.1577,203.6316,108.8447,251.2652,0,U,63043,999,7297,.68905E-3,.22956E-3,0
STARLINK-32735,2025-034R,2026-06-09T09:35:23.414784,15.34387454,.0001069,53.1581,203.8192,85.3861,274.7263,0,U,63044,999,7296,.44201E-3,.14581E-3,0
STARLINK-32828,2025-034S,2026-06-09T10:34:35.563296,15.30194027,.0001283,53.1596,204.7751,88.4612,271.6536,0,U,63045,999,7295,.19478E-3,.5413E-4,0
STARLINK-32738,2025-034T,2026-06-09T12:00:02.998944,15.34062751,.0003624,53.1600,191.3378,126.5336,34.8937,0,U,63046,999,585,.41288E-2,.140256E-2,0
STARLINK-32590,2025-034U,2026-06-09T09:04:17.942880,15.30196631,.0001219,53.1585,192.3174,91.5033,268.6107,0,U,63047,999,7311,.11628E-3,.3086E-4,0
STARLINK-32790,2025-034V,2026-06-09T08:25:45.503904,15.34380428,.0001323,53.1590,192.1480,76.6429,283.4721,0,U,63048,999,7312,.71339E-3,.23788E-3,0
STARLINK-32829,2025-034W,2026-06-09T08:25:50.069280,15.34394939,.0001159,53.1580,204.2261,87.4964,272.6171,0,U,63049,999,7295,.38193E-3,.12548E-3,0
STARLINK-32816,2025-034X,2026-06-09T09:56:35.990880,15.34387709,.0001108,53.1567,203.9056,84.5189,275.5940,0,U,63050,999,7296,.5674E-3,.18835E-3,0
STARLINK-32835,2025-034Y,2026-06-09T09:38:27.168576,15.34405310,.0000967,53.1577,203.8332,95.3544,264.7569,0,U,63051,999,7296,.11286E-2,.37956E-3,0
STARLINK-11550 [DTC],2025-035A,2026-06-09T02:59:37.558464,15.70980323,.00018374,43.0009,183.9913,293.8084,66.2591,0,U,63052,999,7560,.11922174E-2,.156362E-2,0
STARLINK-11563 [DTC],2025-035B,2026-06-09T09:13:30.552096,15.70861479,.0001669,43.0011,182.4990,269.1467,90.9210,0,U,63053,999,7553,.9771E-3,.126975E-2,0
STARLINK-11347 [DTC],2025-035C,2026-06-09T06:56:15.698112,15.70903382,.0001807,42.9968,183.5182,252.2147,107.8523,0,U,63054,999,7562,.11485E-2,.150016E-2,0
STARLINK-11558 [DTC],2025-035D,2026-06-09T08:42:55.721088,15.70856228,.0001224,42.9990,182.3232,275.2294,84.8434,0,U,63055,999,7553,.11251E-2,.146593E-2,0
STARLINK-11392 [DTC],2025-035E,2026-06-09T08:00:03.000384,15.70892254,.0001485,43.0004,183.1051,274.8038,36.1759,0,U,63056,999,600,-.11505E-2,-.14583E-2,0
STARLINK-11406 [DTC],2025-035F,2026-06-08T07:24:38.344032,15.70878801,.00015819,43.0008,189.0500,272.2023,87.8664,0,U,63057,999,7535,.62007622E-3,.80016E-3,0
STARLINK-11418 [DTC],2025-035G,2026-06-09T00:57:40.078080,15.70866877,.00019041,43.0017,185.0942,274.6156,85.4494,0,U,63058,999,7546,.1137206E-2,.148271E-2,0
STARLINK-11509 [DTC],2025-035H,2026-06-09T08:20:10.626144,15.70915832,.0000647,42.9954,183.0905,248.5796,111.5002,0,U,63059,999,7551,.10791E-2,.140828E-2,0
STARLINK-11403 [DTC],2025-035J,2026-06-09T08:04:53.006304,15.70879793,.000191,43.0006,183.0034,277.3481,82.7170,0,U,63060,999,7563,.91839E-3,.1193E-2,0
STARLINK-11409 [DTC],2025-035K,2026-06-09T08:13:50.510208,15.70874764,.0001752,43.0016,183.0507,249.8519,110.2160,0,U,63061,999,7563,.109E-2,.14204E-2,0
STARLINK-11412 [DTC],2025-035L,2026-06-09T07:57:14.243904,15.70981390,.0002579,43.0002,182.9626,274.5812,85.4761,0,U,63062,999,7563,.11663E-2,.152904E-2,0
STARLINK-11399 [DTC],2025-035M,2026-06-09T02:51:59.138208,15.70817238,.00024683,43.0015,183.9408,331.8871,28.1863,0,U,63063,999,7560,.95686167E-3,.124067E-2,0
STARLINK-11408 [DTC],2025-035N,2026-06-09T02:44:19.834080,15.70900517,.0000891,42.9989,183.8941,255.8218,104.2551,0,U,63064,999,7560,.13130088E-2,.171995E-2,0
STARLINK-33635,2025-035P,2026-06-09T06:05:51.823392,15.27605427,.0000506,43.0041,349.9440,124.2028,235.8871,0,U,63065,999,7373,.54692E-3,.1483E-3,0
STARLINK-33622,2025-035Q,2026-06-09T05:39:56.893824,15.27609763,.0002663,43.0033,349.8093,273.6212,86.4335,0,U,63066,999,7373,.6968E-3,.1898E-3,0
