STARLINK-32810          
1 63037U 25034J   26160.40792139  .00025365  00000+0  75965-3 0  9998
2 63037  53.1599 191.7966 0001186  95.7337 264.3800 15.34385891 73136
STARLINK-32812          
1 63038U 25034K   26160.38114977  .00014811  00000+0  51127-3 0  9992
2 63038  53.1571 192.3347 0001217  91.7320 268.3820 15.30195550 73122
STARLINK-32811          
1 63039U 25034L   26160.35540845  .00020881  00000+0  62740-3 0  9994
2 63039  53.1592 192.1780 0001312  79.3294 280.7857 15.34400259 73120
STARLINK-32832          
1 63040U 25034M   26160.32679359  .00012206  00000+0  40427-3 0  9996
2 63040  53.1584 191.9958 0001373  74.6221 285.4932 15.31714613 73127
STARLINK-32820          
1 63041U 25034N   26160.37587253  .00011474  00000+0  39880-3 0  9990
2 63041  53.1575 192.3010 0001067  86.6845 273.4278 15.30209309 73127
STARLINK-32795          
1 63042U 25034P   26160.37214757  .00010561  00000+0  32325-3 0  9990
2 63042  53.1589 191.5715 0001045  94.9243 265.1879 15.34401947 73138
STARLINK-32827          
1 63043U 25034Q   26160.48364551  .00022956  00000+0  68905-3 0  9995
2 63043  53.1577 203.6316 0000893 108.8447 251.2652 15.34372643 72975
STARLINK-32735          
1 63044U 25034R   26160.39957656  .00014581  00000+0  44201-3 0  9998
2 63044  53.1581 203.8192 0001069  85.3861 274.7263 15.34387454 72963
STARLINK-32828          
1 63045U 25034S   26160.44068939  .00005413  00000+0  19478-3 0  9994
2 63045  53.1596 204.7751 0001283  88.4612 271.6536 15.30194027 72953
STARLINK-32738          
1 63046U 25034T   26160.50003471  .00140256  00000+0  41288-2 0  9990
2 63046  53.1600 191.3378 0003624 126.5336  34.8937 15.34062751  5855
STARLINK-32590          
1 63047U 25034U   26160.37798545  .00003086  00000+0  11628-3 0  9994
2 63047  53.1585 192.3174 0001219  91.5033 268.6107 15.30196631 73117
STARLINK-32790          
1 63048U 25034V   26160.35122111  .00023788  00000+0  71339-3 0  9999
2 63048  53.1590 192.1480 0001323  76.6429 283.4721 15.34380428 73122
STARLINK-32829          
1 63049U 25034W   26160.35127395  .00012548  00000+0  38193-3 0  9992
2 63049  53.1580 204.2261 0001159  87.4964 272.6171 15.34394939 72956
STARLINK-32816          
1 63050U 25034X   26160.41430545  .00018835  00000+0  56740-3 0  9998
2 63050  53.1567 203.9056 0001108  84.5189 275.5940 15.34387709 72966
STARLINK-32835          
1 63051U 25034Y   26160.40170334  .00037956  00000+0  11286-2 0  9995
2 63051  53.1577 203.8332 0000967  95.3544 264.7569 15.34405310 72967
STARLINK-11550 [DTC]    
1 63052U 25035A   26160.12474026  .00156362  00000+0  11922-2 0  9991
2 63052  43.0009 183.9913 0001837 293.8084  66.2591 15.70980323 75606
STARLINK-11563 [DTC]    
1 63053U 25035B   26160.38438139  .00126975  00000+0  97710-3 0  9992
2 63053  43.0011 182.4990 0001669 269.1467  90.9210 15.70861479 75537
STARLINK-11347 [DTC]    
1 63054U 25035C   26160.28907058  .00150016  00000+0  11485-2 0  9990
2 63054  42.9968 183.5182 0001807 252.2147 107.8523 15.70903382 75629
STARLINK-11558 [DTC]    
1 63055U 25035D   26160.36314492  .00146593  00000+0  11251-2 0  9990
2 63055  42.9990 182.3232 0001224 275.2294  84.8434 15.70856228 75530
STARLINK-11392 [DTC]    
1 63056U 25035E   26160.33336806 -.00145830  00000+0 -11505-2 0  9998
2 63056  43.0004 183.1051 0001485 274.8038  36.1759 15.70892254  6002
STARLINK-11406 [DTC]    
1 63057U 25035F   26159.30877713  .00080016  00000+0  62008-3 0  9998
2 63057  43.0008 189.0500 0001581 272.2023  87.8664 15.70878801 75358
STARLINK-11418 [DTC]    
1 63058U 25035G   26160.04004720  .00148271  00000+0  11372-2 0  9997
2 63058  43.0017 185.0942 0001904 274.6156  85.4494 15.70866877 75464
STARLINK-11509 [DTC]    
1 63059U 25035H   26160.34734521  .00140828  00000+0  10791-2 0  9994
2 63059  42.9954 183.0905 0000647 248.5796 111.5002 15.70915832 75511
STARLINK-11403 [DTC]    
1 63060U 25035J   26160.33672461  .00119300  00000+0  91839-3 0  9993
2 63060  43.0006 183.0034 0001910 277.3481  82.7170 15.70879793 75634
STARLINK-11409 [DTC]    
1 63061U 25035K   26160.34294572  .00142040  00000+0  10900-2 0  9994
2 63061  43.0016 183.0507 0001752 249.8519 110.2160 15.70874764 75630
STARLINK-11412 [DTC]    
1 63062U 25035L   26160.33141486  .00152904  00000+0  11663-2 0  9996
2 63062  43.0002 182.9626 0002579 274.5812  85.4761 15.70981390 75639
STARLINK-11399 [DTC]    
1 63063U 25035M   26160.11943447  .00124067  00000+0  95686-3 0  9997
2 63063  43.0015 183.9408 0002468 331.8871  28.1863 15.70817238 75605
STARLINK-11408 [DTC]    
1 63064U 25035N   26160.11411845  .00171995  00000+0  13130-2 0  9995
2 63064  42.9989 183.8941 0000891 255.8218 104.2551 15.70900517 75606
STARLINK-33635          
1 63065U 25035P   26160.25407203  .00014830  00000+0  54692-3 0  9997
2 63065  43.0041 349.9440 0000506 124.2028 235.8871 15.27605427 73730
STARLINK-33622          
1 63066U 25035Q   26160.23607516  .00018980  00000+0  69680-3 0  9998
2 63066  43.0033 349.8093 0002663 273.6212  86.4335 15.27609763 73737
